CCSDS_OMM_VERS = 2.0
CREATION_DATE  = 
ORIGINATOR     = 

OBJECT_NAME    = UNKNOWN
OBJECT_ID      = 
CENTER_NAME    = EARTH
REF_FRAME      = TEME
TIME_SYSTEM    = UTC
MEAN_ELEMENT_THEORY = SGP/SGP4

EPOCH          = 2026-01-06T23:29:12.285888
MEAN_MOTION    = 13.84125471
ECCENTRICITY   = .0071985
INCLINATION    = 100.3305
RA_OF_ASC_NODE = 13.1224
ARG_OF_PERICENTER = 189.8286
MEAN_ANOMALY   = 170.1461

EPHEMERIS_TYPE = 0
CLASSIFICATION_TYPE = U
NORAD_CAT_ID   = 87214
ELEMENT_SET_NO = 999
REV_AT_EPOCH   = 60373
BSTAR          = .47961E-3
MEAN_MOTION_DOT = .493E-5
MEAN_MOTION_DDOT = 0

CCSDS_OMM_VERS = 2.0
CREATION_DATE  = 
ORIGINATOR     = 

OBJECT_NAME    = UNKNOWN
OBJECT_ID      = 
CENTER_NAME    = EARTH
REF_FRAME      = TEME
TIME_SYSTEM    = UTC
MEAN_ELEMENT_THEORY = SGP/SGP4

EPOCH          = 2026-01-13T10:42:42.988896
MEAN_MOTION    = 13.91786964
ECCENTRICITY   = .0103586
INCLINATION    = 99.2528
RA_OF_ASC_NODE = 73.8578
ARG_OF_PERICENTER = 198.2516
MEAN_ANOMALY   = 177.0822

EPHEMERIS_TYPE = 0
CLASSIFICATION_TYPE = U
NORAD_CAT_ID   = 87237
ELEMENT_SET_NO = 999
REV_AT_EPOCH   = 61617
BSTAR          = .36092E-3
MEAN_MOTION_DOT = .435E-5
MEAN_MOTION_DDOT = 0

CCSDS_OMM_VERS = 2.0
CREATION_DATE  = 
ORIGINATOR     = 

OBJECT_NAME    = UNKNOWN
OBJECT_ID      = 
CENTER_NAME    = EARTH
REF_FRAME      = TEME
TIME_SYSTEM    = UTC
MEAN_ELEMENT_THEORY = SGP/SGP4

EPOCH          = 2026-01-13T02:12:57.560832
MEAN_MOTION    = 14.52597017
ECCENTRICITY   = .001711
INCLINATION    = 82.8720
RA_OF_ASC_NODE = 56.2271
ARG_OF_PERICENTER = 300.2424
MEAN_ANOMALY   = 59.7081

EPHEMERIS_TYPE = 0
CLASSIFICATION_TYPE = U
NORAD_CAT_ID   = 87239
ELEMENT_SET_NO = 999
REV_AT_EPOCH   = 63242
BSTAR          = .12871E-2
MEAN_MOTION_DOT = .5292E-4
MEAN_MOTION_DDOT = 0

CCSDS_OMM_VERS = 2.0
CREATION_DATE  = 
ORIGINATOR     = 

OBJECT_NAME    = UNKNOWN
OBJECT_ID      = 
CENTER_NAME    = EARTH
REF_FRAME      = TEME
TIME_SYSTEM    = UTC
MEAN_ELEMENT_THEORY = SGP/SGP4

EPOCH          = 2026-01-13T14:15:45.177696
MEAN_MOTION    = 14.16071972
ECCENTRICITY   = .0427911
INCLINATION    = 65.6421
RA_OF_ASC_NODE = 322.6009
ARG_OF_PERICENTER = 105.2287
MEAN_ANOMALY   = 67.2922

EPHEMERIS_TYPE = 0
CLASSIFICATION_TYPE = U
NORAD_CAT_ID   = 87245
ELEMENT_SET_NO = 999
REV_AT_EPOCH   = 61871
BSTAR          = .49432E-3
MEAN_MOTION_DOT = .2291E-4
MEAN_MOTION_DDOT = 0

CCSDS_OMM_VERS = 2.0
CREATION_DATE  = 
ORIGINATOR     = 

OBJECT_NAME    = UNKNOWN
OBJECT_ID      = 
CENTER_NAME    = EARTH
REF_FRAME      = TEME
TIME_SYSTEM    = UTC
MEAN_ELEMENT_THEORY = SGP/SGP4

EPOCH          = 2026-01-13T18:26:00.242304
MEAN_MOTION    = 14.22068428
ECCENTRICITY   = .0419488
INCLINATION    = 65.7540
RA_OF_ASC_NODE = 150.1815
ARG_OF_PERICENTER = 56.5733
MEAN_ANOMALY   = 307.4739

EPHEMERIS_TYPE = 0
CLASSIFICATION_TYPE = U
NORAD_CAT_ID   = 87271
ELEMENT_SET_NO = 999
REV_AT_EPOCH   = 61692
BSTAR          = .5431E-3
MEAN_MOTION_DOT = .2866E-4
MEAN_MOTION_DDOT = 0

CCSDS_OMM_VERS = 2.0
CREATION_DATE  = 
ORIGINATOR     = 

OBJECT_NAME    = UNKNOWN
OBJECT_ID      = 
CENTER_NAME    = EARTH
REF_FRAME      = TEME
TIME_SYSTEM    = UTC
MEAN_ELEMENT_THEORY = SGP/SGP4

EPOCH          = 2026-01-11T17:01:21.737568
MEAN_MOTION    = 13.48581249
ECCENTRICITY   = .0128632
INCLINATION    = 64.6147
RA_OF_ASC_NODE = 161.2504
ARG_OF_PERICENTER = 254.8217
MEAN_ANOMALY   = 103.8566

EPHEMERIS_TYPE = 0
CLASSIFICATION_TYPE = U
NORAD_CAT_ID   = 87280
ELEMENT_SET_NO = 999
REV_AT_EPOCH   = 53789
BSTAR          = .67277E-3
MEAN_MOTION_DOT = .357E-5
MEAN_MOTION_DDOT = 0

CCSDS_OMM_VERS = 2.0
CREATION_DATE  = 
ORIGINATOR     = 

OBJECT_NAME    = UNKNOWN
OBJECT_ID      = 
CENTER_NAME    = EARTH
REF_FRAME      = TEME
TIME_SYSTEM    = UTC
MEAN_ELEMENT_THEORY = SGP/SGP4

EPOCH          = 2026-01-14T12:42:24.060096
MEAN_MOTION    = 14.18379189
ECCENTRICITY   = .0428428
INCLINATION    = 65.8969
RA_OF_ASC_NODE = 58.0739
ARG_OF_PERICENTER = 341.8308
MEAN_ANOMALY   = 16.7854

EPHEMERIS_TYPE = 0
CLASSIFICATION_TYPE = U
NORAD_CAT_ID   = 87293
ELEMENT_SET_NO = 999
REV_AT_EPOCH   = 61864
BSTAR          = .74391E-3
MEAN_MOTION_DOT = .3748E-4
MEAN_MOTION_DDOT = 0

CCSDS_OMM_VERS = 2.0
CREATION_DATE  = 
ORIGINATOR     = 

OBJECT_NAME    = UNKNOWN
OBJECT_ID      = 
CENTER_NAME    = EARTH
REF_FRAME      = TEME
TIME_SYSTEM    = UTC
MEAN_ELEMENT_THEORY = SGP/SGP4

EPOCH          = 2026-01-13T16:17:01.791744
MEAN_MOTION    = 13.99567399
ECCENTRICITY   = .0026149
INCLINATION    = 100.0900
RA_OF_ASC_NODE = 4.3447
ARG_OF_PERICENTER = 206.9129
MEAN_ANOMALY   = 153.0677

EPHEMERIS_TYPE = 0
CLASSIFICATION_TYPE = U
NORAD_CAT_ID   = 87300
ELEMENT_SET_NO = 999
REV_AT_EPOCH   = 61758
BSTAR          = .10635E-2
MEAN_MOTION_DOT = .1504E-4
MEAN_MOTION_DDOT = 0

CCSDS_OMM_VERS = 2.0
CREATION_DATE  = 
ORIGINATOR     = 

OBJECT_NAME    = UNKNOWN
OBJECT_ID      = 
CENTER_NAME    = EARTH
REF_FRAME      = TEME
TIME_SYSTEM    = UTC
MEAN_ELEMENT_THEORY = SGP/SGP4

EPOCH          = 2026-01-11T09:50:34.494144
MEAN_MOTION    = 14.75571984
ECCENTRICITY   = .001838
INCLINATION    = 74.0180
RA_OF_ASC_NODE = 262.8600
ARG_OF_PERICENTER = 226.7719
MEAN_ANOMALY   = 133.1921

EPHEMERIS_TYPE = 0
CLASSIFICATION_TYPE = U
NORAD_CAT_ID   = 87304
ELEMENT_SET_NO = 999
REV_AT_EPOCH   = 65085
BSTAR          = .25185E-3
MEAN_MOTION_DOT = .1688E-4
MEAN_MOTION_DDOT = 0

CCSDS_OMM_VERS = 2.0
CREATION_DATE  = 
ORIGINATOR     = 

OBJECT_NAME    = UNKNOWN
OBJECT_ID      = 
CENTER_NAME    = EARTH
REF_FRAME      = TEME
TIME_SYSTEM    = UTC
MEAN_ELEMENT_THEORY = SGP/SGP4

EPOCH          = 2026-01-13T06:29:53.657088
MEAN_MOTION    = 13.70154152
ECCENTRICITY   = .0416812
INCLINATION    = 66.5953
RA_OF_ASC_NODE = 9.0628
ARG_OF_PERICENTER = 34.2803
MEAN_ANOMALY   = 328.4426

EPHEMERIS_TYPE = 0
CLASSIFICATION_TYPE = U
NORAD_CAT_ID   = 87320
ELEMENT_SET_NO = 999
REV_AT_EPOCH   = 59806
BSTAR          = .11369E-2
MEAN_MOTION_DOT = .1779E-4
MEAN_MOTION_DDOT = 0

CCSDS_OMM_VERS = 2.0
CREATION_DATE  = 
ORIGINATOR     = 

OBJECT_NAME    = UNKNOWN
OBJECT_ID      = 
CENTER_NAME    = EARTH
REF_FRAME      = TEME
TIME_SYSTEM    = UTC
MEAN_ELEMENT_THEORY = SGP/SGP4

EPOCH          = 2026-01-14T02:59:02.505120
MEAN_MOTION    = 14.08115613
ECCENTRICITY   = .0052183
INCLINATION    = 89.9954
RA_OF_ASC_NODE = 271.6899
ARG_OF_PERICENTER = 134.7452
MEAN_ANOMALY   = 225.7997

EPHEMERIS_TYPE = 0
CLASSIFICATION_TYPE = U
NORAD_CAT_ID   = 87334
ELEMENT_SET_NO = 999
REV_AT_EPOCH   = 39120
BSTAR          = .79004E-2
MEAN_MOTION_DOT = .13652E-3
MEAN_MOTION_DDOT = 0

CCSDS_OMM_VERS = 2.0
CREATION_DATE  = 
ORIGINATOR     = 

OBJECT_NAME    = UNKNOWN
OBJECT_ID      = 
CENTER_NAME    = EARTH
REF_FRAME      = TEME
TIME_SYSTEM    = UTC
MEAN_ELEMENT_THEORY = SGP/SGP4

EPOCH          = 2026-01-13T04:53:36.115008
MEAN_MOTION    = 14.08385191
ECCENTRICITY   = .0073123
INCLINATION    = 89.9809
RA_OF_ASC_NODE = 267.9447
ARG_OF_PERICENTER = 115.5947
MEAN_ANOMALY   = 245.2818

EPHEMERIS_TYPE = 0
CLASSIFICATION_TYPE = U
NORAD_CAT_ID   = 87335
ELEMENT_SET_NO = 999
REV_AT_EPOCH   = 39140
BSTAR          = .81077E-2
MEAN_MOTION_DOT = .14252E-3
MEAN_MOTION_DDOT = 0

