UNKNOWN                 
1 87214U          26006.97861442  .00000493  00000+0  47961-3 0  9992
2 87214 100.3305  13.1224 0071985 189.8286 170.1461 13.84125471603736
UNKNOWN                 
1 87237U          26013.44633089  .00000435  00000+0  36092-3 0  9990
2 87237  99.2528  73.8578 0103586 198.2516 177.0822 13.91786964616179
UNKNOWN                 
1 87239U          26013.09233288  .00005292  00000+0  12871-2 0  9994
2 87239  82.8720  56.2271 0017110 300.2424  59.7081 14.52597017632424
UNKNOWN                 
1 87245U          26013.59427289  .00002291  00000+0  49432-3 0  9992
2 87245  65.6421 322.6009 0427911 105.2287  67.2922 14.16071972618712
UNKNOWN                 
1 87271U          26013.76805836  .00002866  00000+0  54310-3 0  9997
2 87271  65.7540 150.1815 0419488  56.5733 307.4739 14.22068428616922
UNKNOWN                 
1 87280U          26011.70927937  .00000357  00000+0  67277-3 0  9995
2 87280  64.6147 161.2504 0128632 254.8217 103.8566 13.48581249537891
UNKNOWN                 
1 87293U          26014.52944514  .00003748  00000+0  74391-3 0  9994
2 87293  65.8969  58.0739 0428428 341.8308  16.7854 14.18379189618648
UNKNOWN                 
1 87300U          26013.67849296  .00001504  00000+0  10635-2 0  9997
2 87300 100.0900   4.3447 0026149 206.9129 153.0677 13.99567399617580
UNKNOWN                 
1 87304U          26011.41012146  .00001688  00000+0  25185-3 0  9997
2 87304  74.0180 262.8600 0018380 226.7719 133.1921 14.75571984650857
UNKNOWN                 
1 87320U          26013.27075992  .00001779  00000+0  11369-2 0  9998
2 87320  66.5953   9.0628 0416812  34.2803 328.4426 13.70154152598069
UNKNOWN                 
1 87334U          26014.12433455  .00013652  00000+0  79004-2 0  9993
2 87334  89.9954 271.6899 0052183 134.7452 225.7997 14.08115613391204
UNKNOWN                 
1 87335U          26013.20389022  .00014252  00000+0  81077-2 0  9992
2 87335  89.9809 267.9447 0073123 115.5947 245.2818 14.08385191391405
